{
    "week": 287,
    "satellites": [
        {
            "Name": "GSAT0208 (GALILEO 11)",
            "Line1": "1 41175U 15079B   24278.06684490  .00000055  00000+0  00000+0 0  9998",
            "Line2": "2 41175  55.4726 118.3195 0001950   8.4595 351.6359  1.70474074 54604",
            "SatelliteNumber": "41175",
            "Classification": "U",
            "LaunchYear": "15",
            "LaunchNumber": "079",
            "PieceOfLaunch": "B",
            "EpochYear": "24",
            "EpochDay": 278.0668449,
            "FirstDerivativeMeanMotion": 5.5e-07,
            "SecondDerivativeMeanMotion": "00000+0",
            "BSTAR": "00000+0",
            "SetNumber": "999",
            "Inclination": 55.4726,
            "RAAN": 118.3195,
            "Eccentricity": 0.000195,
            "ArgumentOfPerigee": 8.4595,
            "MeanAnomaly": 351.6359,
            "MeanMotion": 1.70474074,
            "RevolutionNumber": "5460"
        },
        {
            "Name": "GSAT0211 (GALILEO 14)",
            "Line1": "1 41549U 16030A   24279.94913751  .00000014  00000+0  00000+0 0  9999",
            "Line2": "2 41549  55.3205 238.7282 0003506 327.5933  32.3519  1.70473223 52114",
            "SatelliteNumber": "41549",
            "Classification": "U",
            "LaunchYear": "16",
            "LaunchNumber": "030",
            "PieceOfLaunch": "A",
            "EpochYear": "24",
            "EpochDay": 279.94913751,
            "FirstDerivativeMeanMotion": 1.4e-07,
            "SecondDerivativeMeanMotion": "00000+0",
            "BSTAR": "00000+0",
            "SetNumber": "999",
            "Inclination": 55.3205,
            "RAAN": 238.7282,
            "Eccentricity": 0.0003506,
            "ArgumentOfPerigee": 327.5933,
            "MeanAnomaly": 32.3519,
            "MeanMotion": 1.70473223,
            "RevolutionNumber": "5211"
        },
        {
            "Name": "GSAT0210 (GALILEO 13)",
            "Line1": "1 41550U 16030B   24280.20724862  .00000016  00000+0  00000+0 0  9997",
            "Line2": "2 41550  55.3197 238.7195 0003413 246.1524 113.7801  1.70473621 52118",
            "SatelliteNumber": "41550",
            "Classification": "U",
            "LaunchYear": "16",
            "LaunchNumber": "030",
            "PieceOfLaunch": "B",
            "EpochYear": "24",
            "EpochDay": 280.20724862,
            "FirstDerivativeMeanMotion": 1.6e-07,
            "SecondDerivativeMeanMotion": "00000+0",
            "BSTAR": "00000+0",
            "SetNumber": "999",
            "Inclination": 55.3197,
            "RAAN": 238.7195,
            "Eccentricity": 0.0003413,
            "ArgumentOfPerigee": 246.1524,
            "MeanAnomaly": 113.7801,
            "MeanMotion": 1.70473621,
            "RevolutionNumber": "5211"
        },
        {
            "Name": "GSAT0207 (GALILEO 15)",
            "Line1": "1 41859U 16069A   24278.72714591  .00000056  00000+0  00000+0 0  9997",
            "Line2": "2 41859  55.1392 118.2784 0002044 326.9920  33.0841  1.70474189 48828",
            "SatelliteNumber": "41859",
            "Classification": "U",
            "LaunchYear": "16",
            "LaunchNumber": "069",
            "PieceOfLaunch": "A",
            "EpochYear": "24",
            "EpochDay": 278.72714591,
            "FirstDerivativeMeanMotion": 5.6e-07,
            "SecondDerivativeMeanMotion": "00000+0",
            "BSTAR": "00000+0",
            "SetNumber": "999",
            "Inclination": 55.1392,
            "RAAN": 118.2784,
            "Eccentricity": 0.0002044,
            "ArgumentOfPerigee": 326.992,
            "MeanAnomaly": 33.0841,
            "MeanMotion": 1.70474189,
            "RevolutionNumber": "4882"
        },
        {
            "Name": "GSAT0212 (GALILEO 16)",
            "Line1": "1 41860U 16069B   24279.75448155  .00000057  00000+0  00000+0 0  9994",
            "Line2": "2 41860  55.1373 118.2460 0002312  31.3112 328.7861  1.70474332 49094",
            "SatelliteNumber": "41860",
            "Classification": "U",
            "LaunchYear": "16",
            "LaunchNumber": "069",
            "PieceOfLaunch": "B",
            "EpochYear": "24",
            "EpochDay": 279.75448155,
            "FirstDerivativeMeanMotion": 5.7e-07,
            "SecondDerivativeMeanMotion": "00000+0",
            "BSTAR": "00000+0",
            "SetNumber": "999",
            "Inclination": 55.1373,
            "RAAN": 118.246,
            "Eccentricity": 0.0002312,
            "ArgumentOfPerigee": 31.3112,
            "MeanAnomaly": 328.7861,
            "MeanMotion": 1.70474332,
            "RevolutionNumber": "4909"
        },
        {
            "Name": "GSAT0213 (GALILEO 17)",
            "Line1": "1 41861U 16069C   24280.12286208  .00000057  00000+0  00000+0 0  9997",
            "Line2": "2 41861  55.1398 118.2428 0001757 280.3757  79.6861  1.70474724 48961",
            "SatelliteNumber": "41861",
            "Classification": "U",
            "LaunchYear": "16",
            "LaunchNumber": "069",
            "PieceOfLaunch": "C",
            "EpochYear": "24",
            "EpochDay": 280.12286208,
            "FirstDerivativeMeanMotion": 5.7e-07,
            "SecondDerivativeMeanMotion": "00000+0",
            "BSTAR": "00000+0",
            "SetNumber": "999",
            "Inclination": 55.1398,
            "RAAN": 118.2428,
            "Eccentricity": 0.0001757,
            "ArgumentOfPerigee": 280.3757,
            "MeanAnomaly": 79.6861,
            "MeanMotion": 1.70474724,
            "RevolutionNumber": "4896"
        },
        {
            "Name": "GSAT0214 (GALILEO 18)",
            "Line1": "1 41862U 16069D   24280.26821149  .00000057  00000+0  00000+0 0  9992",
            "Line2": "2 41862  55.1389 118.2323 0000849 292.2905  67.7814  1.70474363 49094",
            "SatelliteNumber": "41862",
            "Classification": "U",
            "LaunchYear": "16",
            "LaunchNumber": "069",
            "PieceOfLaunch": "D",
            "EpochYear": "24",
            "EpochDay": 280.26821149,
            "FirstDerivativeMeanMotion": 5.7e-07,
            "SecondDerivativeMeanMotion": "00000+0",
            "BSTAR": "00000+0",
            "SetNumber": "999",
            "Inclination": 55.1389,
            "RAAN": 118.2323,
            "Eccentricity": 8.49e-05,
            "ArgumentOfPerigee": 292.2905,
            "MeanAnomaly": 67.7814,
            "MeanMotion": 1.70474363,
            "RevolutionNumber": "4909"
        },
        {
            "Name": "GSAT0215 (GALILEO 19)",
            "Line1": "1 43055U 17079A   24279.58429099  .00000012  00000+0  00000+0 0  9992",
            "Line2": "2 43055  55.2976 238.5586 0002918 277.3910  82.5405  1.70473916 42423",
            "SatelliteNumber": "43055",
            "Classification": "U",
            "LaunchYear": "17",
            "LaunchNumber": "079",
            "PieceOfLaunch": "A",
            "EpochYear": "24",
            "EpochDay": 279.58429099,
            "FirstDerivativeMeanMotion": 1.2e-07,
            "SecondDerivativeMeanMotion": "00000+0",
            "BSTAR": "00000+0",
            "SetNumber": "999",
            "Inclination": 55.2976,
            "RAAN": 238.5586,
            "Eccentricity": 0.0002918,
            "ArgumentOfPerigee": 277.391,
            "MeanAnomaly": 82.5405,
            "MeanMotion": 1.70473916,
            "RevolutionNumber": "4242"
        },
        {
            "Name": "GSAT0216 (GALILEO 20)",
            "Line1": "1 43056U 17079B   24279.87590939  .00000014  00000+0  00000+0 0  9999",
            "Line2": "2 43056  55.2976 238.5504 0004384 283.0022  76.9153  1.70474050 42440",
            "SatelliteNumber": "43056",
            "Classification": "U",
            "LaunchYear": "17",
            "LaunchNumber": "079",
            "PieceOfLaunch": "B",
            "EpochYear": "24",
            "EpochDay": 279.87590939,
            "FirstDerivativeMeanMotion": 1.4e-07,
            "SecondDerivativeMeanMotion": "00000+0",
            "BSTAR": "00000+0",
            "SetNumber": "999",
            "Inclination": 55.2976,
            "RAAN": 238.5504,
            "Eccentricity": 0.0004384,
            "ArgumentOfPerigee": 283.0022,
            "MeanAnomaly": 76.9153,
            "MeanMotion": 1.7047405,
            "RevolutionNumber": "4244"
        },
        {
            "Name": "GSAT0217 (GALILEO 21)",
            "Line1": "1 43057U 17079C   24279.50983445  .00000012  00000+0  00000+0 0  9996",
            "Line2": "2 43057  55.2958 238.5592 0003870 297.4460  62.4789  1.70474004 42424",
            "SatelliteNumber": "43057",
            "Classification": "U",
            "LaunchYear": "17",
            "LaunchNumber": "079",
            "PieceOfLaunch": "C",
            "EpochYear": "24",
            "EpochDay": 279.50983445,
            "FirstDerivativeMeanMotion": 1.2e-07,
            "SecondDerivativeMeanMotion": "00000+0",
            "BSTAR": "00000+0",
            "SetNumber": "999",
            "Inclination": 55.2958,
            "RAAN": 238.5592,
            "Eccentricity": 0.000387,
            "ArgumentOfPerigee": 297.446,
            "MeanAnomaly": 62.4789,
            "MeanMotion": 1.70474004,
            "RevolutionNumber": "4242"
        }
    ]
}